NORAD_CAT_ID,OBJECT_NAME,OBJECT_TYPE,EPOCH,MEAN_MOTION,ECCENTRICITY,INCLINATION,RA_OF_ASC_NODE,ARG_OF_PERICENTER,MEAN_ANOMALY,BSTAR,MEAN_MOTION_DOT,MEAN_MOTION_DDOT,TLE_LINE0,TLE_LINE1,TLE_LINE2,SEMIMAJOR_AXIS,PERIOD,APOGEE,PERIGEE,DECAYED
52681.0,STARLINK-4068,PAYLOAD,2022-07-07 22:00:00,15.62942774,0.0001169,53.2174,48.1444,58.5254,291.9494,-0.012712,-0.01067686,0.0,0 STARLINK-4068,1 52681U 22053AB  22188.91667824 -.01067686  00000-0 -12712-1 0  9998,2 52681  53.2174  48.1444 0001169  58.5254 291.9494 15.62942774  1306,6757.299,92.134,379.954,378.374,0.0
52681.0,STARLINK-4068,PAYLOAD,2022-07-08 07:15:06,15.62959125,0.0001226,53.2161,46.2769,139.9399,220.1707,-0.0056729,-0.00493498,0.0,0 STARLINK-4068,1 52681U 22053AB  22189.30215912 -.00493498  00000-0 -56729-2 0  9999,2 52681  53.2161  46.2769 0001226 139.9399 220.1707 15.62959125  8327,6757.252,92.133,379.945,378.288,0.0
52681.0,STARLINK-4068,PAYLOAD,2022-07-08 14:00:01,15.61421655,0.0001291,53.2174,44.895,66.5035,75.3343,-0.013429,-0.01063089,0.0,0 STARLINK-4068,1 52681U 22053AB  22189.58334491 -.01063089  00000-0 -13429-1 0  9992,2 52681  53.2174  44.8950 0001291  66.5035  75.3343 15.61421655  8362,6761.687,92.224,384.425,382.679,0.0
52681.0,STARLINK-4068,PAYLOAD,2022-07-08 22:00:01,15.60661975,0.000143,53.2173,43.2761,58.0815,158.1319,-0.013829,-0.01062979,0.0,0 STARLINK-4068,1 52681U 22053AB  22189.91668981 -.01062979  00000-0 -13829-1 0  9994,2 52681  53.2173  43.2761 0001430  58.0815 158.1319 15.60661975  1301,6763.880999999999,92.269,386.713,384.779,0.0
52681.0,STARLINK-4068,PAYLOAD,2022-07-09 04:00:00,15.60093954,0.0001226,53.2172,42.0614,80.4277,100.8554,-0.014178,-0.01065808,0.0,0 STARLINK-4068,1 52681U 22053AB  22190.16667824 -.01065808  00000-0 -14178-1 0  9990,2 52681  53.2172  42.0614 0001226  80.4277 100.8554 15.60093954  8463,6765.522,92.302,388.217,386.5580000000001,0.0
52681.0,STARLINK-4068,PAYLOAD,2022-07-09 14:00:01,15.59141834,0.0001127,53.2175,40.0378,63.6777,298.3574,-0.014624,-0.01060368,0.0,0 STARLINK-4068,1 52681U 22053AB  22190.58334491 -.01060368  00000-0 -14624-1 0  9999,2 52681  53.2175  40.0378 0001127  63.6777 298.3574 15.59141834  1310,6768.276,92.358,390.904,389.379,0.0
52681.0,STARLINK-4068,PAYLOAD,2022-07-09 20:00:01,15.58573195,0.0001155,53.2174,38.8278,66.2719,259.5277,-0.0149729999999999,-0.01062198,0.0,0 STARLINK-4068,1 52681U 22053AB  22190.83334491 -.01062198  00000-0 -14973-1 0  9997,2 52681  53.2174  38.8278 0001155  66.2719 259.5277 15.58573195  1305,6769.9230000000025,92.392,392.57,391.006,0.0
52681.0,STARLINK-4068,PAYLOAD,2022-07-10 14:00:01,15.56864186,0.0001306,53.2176,35.1972,72.2447,141.7727,-0.0159419999999999,-0.01060378,0.0,0 STARLINK-4068,1 52681U 22053AB  22191.58334491 -.01060378  00000-0 -15942-1 0  9995,2 52681  53.2176  35.1972 0001306  72.2447 141.7727 15.56864186  8682,6774.876,92.494,397.626,395.856,0.0
52681.0,STARLINK-4068,PAYLOAD,2022-07-10 22:00:00,15.56105464,0.0001246,53.2175,33.5894,67.8652,214.9865,-0.016436,-0.0106239,0.0,0 STARLINK-4068,1 52681U 22053AB  22191.91667824 -.01062390  00000-0 -16436-1 0  9996,2 52681  53.2175  33.5894 0001246  67.8652 214.9865 15.56105464  1302,6777.078,92.539,399.788,398.099,0.0
52681.0,STARLINK-4068,PAYLOAD,2022-07-11 06:00:00,15.55346559,0.0001053,53.2174,31.9799,74.6407,276.1348,-0.01693,-0.01063649,0.0,0 STARLINK-4068,1 52681U 22053AB  22192.25001157 -.01063649  00000-0 -16930-1 0  9992,2 52681  53.2174  31.9799 0001053  74.6407 276.1348 15.55346559  8783,6779.281999999997,92.584,401.861,400.434,0.0
52681.0,STARLINK-4068,PAYLOAD,2022-07-11 14:00:01,15.54584796,0.0001219,53.2175,30.373,59.2483,358.5385,-0.017334,-0.01059235,0.0,0 STARLINK-4068,1 52681U 22053AB  22192.58334491 -.01059235  00000-0 -17334-1 0  9993,2 52681  53.2175  30.3730 0001219  59.2483 358.5385 15.54584796  1302,6781.496999999999,92.629,404.189,402.535,0.0
52681.0,STARLINK-4068,PAYLOAD,2022-07-11 22:00:00,15.53825727,0.00015,53.2174,28.7707,49.5345,74.3485,-0.017832,-0.0105969,0.0,0 STARLINK-4068,1 52681U 22053AB  22192.91667824 -.01059690  00000-0 -17832-1 0  9997,2 52681  53.2174  28.7707 0001500  49.5345  74.3485 15.53825727  1303,6783.705,92.674,406.588,404.55300000000005,0.0
52681.0,STARLINK-4068,PAYLOAD,2022-07-12 14:00:01,15.52306869,0.0001268,53.2176,25.5654,75.3391,178.002,-0.018835,-0.01058958,0.0,0 STARLINK-4068,1 52681U 22053AB  22193.58334491 -.01058958  00000-0 -18835-1 0  9992,2 52681  53.2176  25.5654 0001268  75.3391 178.0020 15.52306869  1307,6788.13,92.765,410.855,409.134,0.0
52681.0,STARLINK-4068,PAYLOAD,2022-07-12 22:00:00,15.51547855,0.0001277,53.2176,23.9685,59.8202,256.8794,-0.019382,-0.0106009,0.0,0 STARLINK-4068,1 52681U 22053AB  22193.91667824 -.01060090  00000-0 -19382-1 0  9996,2 52681  53.2176  23.9685 0001277  59.8202 256.8794 15.51547855  1305,6790.343000000003,92.811,413.075,411.341,0.0
52681.0,STARLINK-4068,PAYLOAD,2022-07-13 04:00:00,15.50944895,0.0001379,53.2173,22.7696,64.8052,208.8231,-0.018326,-0.00987525,0.0,0 STARLINK-4068,1 52681U 22053AB  22194.16667824 -.00987525  00000-0 -18326-1 0  9991,2 52681  53.2173  22.7696 0001379  64.8052 208.8231 15.50944895  9083,6792.103,92.847,414.905,413.031,0.0
52681.0,STARLINK-4068,PAYLOAD,2022-07-13 14:00:01,15.4999159,0.0001366,53.2177,20.7751,63.9096,16.7957,-0.0029377,-0.00164351,0.0,0 STARLINK-4068,1 52681U 22053AB  22194.58334491 -.00164351  00000-0 -29377-2 0  9991,2 52681  53.2177  20.7751 0001366  63.9096  16.7957 15.49991590  9141,6794.888000000001,92.904,417.681,415.824,0.0
52681.0,STARLINK-4068,PAYLOAD,2022-07-13 22:00:00,15.50085472,0.0001413,53.2173,19.1851,53.4971,88.0618,-0.0051641,-0.00285151,0.0,0 STARLINK-4068,1 52681U 22053AB  22194.91667824 -.00285151  00000-0 -51641-2 0  9998,2 52681  53.2173  19.1851 0001413  53.4971  88.0618 15.50085472  9195,6794.613,92.898,417.43800000000016,415.518,0.0
52681.0,STARLINK-4068,PAYLOAD,2022-07-14 04:00:00,15.49872065,0.0001165,53.2151,17.9951,56.0504,41.1522,-0.00037681,-0.00021768,0.0,0 STARLINK-4068,1 52681U 22053AB  22195.16667824 -.00021768  00000-0 -37681-3 0  9997,2 52681  53.2151  17.9951 0001165  56.0504  41.1522 15.49872065  9232,6795.236999999999,92.911,417.894,416.31,0.0
52681.0,STARLINK-4068,PAYLOAD,2022-07-14 14:00:01,15.49879274,0.0001119,53.2155,16.0035,65.8571,197.4446,-4.4571e-05,-2.979e-05,0.0,0 STARLINK-4068,1 52681U 22053AB  22195.58334491 -.00002979  00000-0 -44571-4 0  9994,2 52681  53.2155  16.0035 0001119  65.8571 197.4446 15.49879274  1309,6795.215999999999,92.91,417.841,416.321,0.0
52681.0,STARLINK-4068,PAYLOAD,2022-07-14 22:00:00,15.49818048,0.0001211,53.2162,14.4089,53.0433,271.1725,0.0043856,0.0025617,0.0,0 STARLINK-4068,1 52681U 22053AB  22195.91667824  .00256170  00000-0  43856-2 0  9995,2 52681  53.2162  14.4089 0001211  53.0433 271.1725 15.49818048  9352,6795.395,92.914,418.083,416.437,0.0
52681.0,STARLINK-4068,PAYLOAD,2022-07-15 06:00:00,15.50102365,0.0001078,53.2172,12.81,54.0769,331.1005,-0.02559,-0.01320964,0.0,0 STARLINK-4068,1 52681U 22053AB  22196.25001157 -.01320964  00000-0 -25590-1 0  9994,2 52681  53.2172  12.8100 0001078  54.0769 331.1005 15.50102365  9407,6794.564,92.897,417.161,415.696,0.0
52681.0,STARLINK-4068,PAYLOAD,2022-07-15 14:00:01,15.4916059,0.0001343,53.2174,11.2155,54.3575,31.4022,-0.021095,-0.01059469,0.0,0 STARLINK-4068,1 52681U 22053AB  22196.58334491 -.01059469  00000-0 -21095-1 0  9995,2 52681  53.2174  11.2155 0001343  54.3575  31.4022 15.49160590  9451,6797.316999999999,92.954,420.095,418.269,0.0
52681.0,STARLINK-4068,PAYLOAD,2022-07-15 22:00:00,15.48396159,0.0001354,53.2174,9.6258,63.3719,81.9672,-0.021484,-0.01051081,0.0,0 STARLINK-4068,1 52681U 22053AB  22196.91667824 -.01051081  00000-0 -21484-1 0  9995,2 52681  53.2174   9.6258 0001354  63.3719  81.9672 15.48396159  1306,6799.554,92.999,422.34,420.499,0.0
52681.0,STARLINK-4068,PAYLOAD,2022-07-16 12:00:00,15.47070572,0.000151,53.2176,6.8431,54.8048,102.6004,-0.022622,-0.01056026,0.0,0 STARLINK-4068,1 52681U 22053AB  22197.50001157 -.01056026  00000-0 -22622-1 0  9991,2 52681  53.2176   6.8431 0001510  54.8048 102.6004 15.47070572  9602,6803.438,93.079,426.33,424.276,0.0
52681.0,STARLINK-4068,PAYLOAD,2022-07-16 14:00:01,15.46880764,0.0001391,53.2176,6.4469,58.0993,203.6585,-0.022783,-0.01056446,0.0,0 STARLINK-4068,1 52681U 22053AB  22197.58334491 -.01056446  00000-0 -22783-1 0  9993,2 52681  53.2176   6.4469 0001391  58.0993 203.6585 15.46880764  1307,6803.994000000002,93.091,426.806,424.913,0.0
52681.0,STARLINK-4068,PAYLOAD,2022-07-16 22:00:00,15.46120116,0.0001295,53.2175,4.8624,53.8155,264.7823,-0.023335,-0.01054018,0.0,0 STARLINK-4068,1 52681U 22053AB  22197.91667824 -.01054018  00000-0 -23335-1 0  9996,2 52681  53.2175   4.8624 0001295  53.8155 264.7823 15.46120116  1308,6806.226,93.136,428.972,427.209,0.0
52681.0,STARLINK-4068,PAYLOAD,2022-07-17 06:00:00,15.45361631,0.0001224,53.2175,3.2763,52.6805,321.8465,-0.024019,-0.01056552,0.0,0 STARLINK-4068,1 52681U 22053AB  22198.25001157 -.01056552  00000-0 -24019-1 0  9990,2 52681  53.2175   3.2763 0001224  52.6805 321.8465 15.45361631  9714,6808.453,93.182,431.151,429.484,0.0
52681.0,STARLINK-4068,PAYLOAD,2022-07-17 14:00:01,15.44603669,0.0001314,53.2177,1.6947,54.6127,14.9285,-0.024707,-0.0105866,0.0,0 STARLINK-4068,1 52681U 22053AB  22198.58334491 -.01058660  00000-0 -24707-1 0  9992,2 52681  53.2177   1.6947 0001314  54.6127  14.9285 15.44603669  1307,6810.68,93.228,433.44,431.65,0.0
52681.0,STARLINK-4068,PAYLOAD,2022-07-17 22:00:00,15.43839422,0.0001444,53.2174,0.1154,52.3722,71.2725,-0.02514,-0.0105029,0.0,0 STARLINK-4068,1 52681U 22053AB  22198.91667824 -.01050290  00000-0 -25140-1 0  9991,2 52681  53.2174   0.1154 0001444  52.3722  71.2725 15.43839422  1300,6812.927,93.274,435.776,433.809,0.0
